TRANSPORTER-16 OBJECT BS
1 68480U 26067BS  26103.91480817  .00001933  00000+0  19361-3 0  9995
2 68480  97.7577  63.2047 0005353 112.7999 247.3786 14.92536438  2145
