{
  "norad_id": 68480,
  "name": "TRANSPORTER-16 OBJECT BS",
  "history": [
    {
      "epoch": "2026-04-13T21:57:19.425888Z",
      "apogee_km": 593.7605497440209,
      "perigee_km": 586.2993153193429,
      "latitude_deg": -1.3083427968818582e-05,
      "longitude_deg": -108.22498423644778,
      "height_km": 594.5096822692758,
      "semi_major_axis_km": 6968.166932531682,
      "eccentricity": 0.00053538,
      "inclination_deg": 97.7577,
      "raan_deg": 63.2047,
      "arg_perigee_deg": 112.7999,
      "mean_anomaly_deg": 247.3786,
      "mean_motion_rev_day": 14.92536438
    }
  ]
}